STARLINK-4059           
1 53250U 22086J   22216.91667824 -.00005636  00000+0 -35727-4 0  9998
2 53250  53.2193 347.0119 0001701 298.7128  87.7428 15.73220996  1305
STARLINK-4129           
1 53251U 22086K   22216.91667824  .00031690  00000+0  22888-3 0  9999
2 53251  53.2194 347.0075 0002156 290.0460  98.6107 15.73248221  1303
STARLINK-4132           
1 53252U 22086L   22216.91667824  .00031623  00000+0  22889-3 0  9997
2 53252  53.2193 347.0106 0000905 332.4651  54.5710 15.73199136  1302
STARLINK-4133           
1 53253U 22086M   22216.91667824 -.00063663  00000+0 -45198-3 0  9997
2 53253  53.2199 347.0079 0007509 274.3748 115.0948 15.73185455  1301
STARLINK-4134           
1 53254U 22086N   22216.91667824  .00028747  00000+0  20816-3 0  9990
2 53254  53.2193 347.0085 0002791 286.4662 101.5611 15.73240388  1304
STARLINK-4142           
1 53255U 22086P   22216.91667824  .00028249  00000+0  20439-3 0  9999
2 53255  53.2191 347.0035 0007739 275.7143 114.8070 15.73239373  1308
STARLINK-4147           
1 53256U 22086Q   22216.91667824 -.00082912  00000+0 -59047-3 0  9996
2 53256  53.2197 347.0056 0002229 291.6589  98.3477 15.73263481  1302
STARLINK-4144           
1 53257U 22086R   22216.91667824 -.00072122  00000+0 -51292-3 0  9993
2 53257  53.2194 347.0006 0000871   8.1295  24.2939 15.73244070  1305
STARLINK-4127           
1 53258U 22086S   22216.91667824 -.00066764  00000+0 -47410-3 0  9996
2 53258  53.2194 347.0028 0000961 326.7398  64.4656 15.73248169  1308
STARLINK-4140           
1 53259U 22086T   22216.91667824 -.00075071  00000+0 -53427-3 0  9993
2 53259  53.2197 347.0000 0000948 334.8027  58.2160 15.73243476  1303
STARLINK-4136           
1 53260U 22086U   22216.91667824 -.00025042  00000+0 -17420-3 0  9991
2 53260  53.2190 347.0001 0001397 300.2441  91.5720 15.73244432  1300
STARLINK-4062           
1 53261U 22086V   22216.91667824  .00032589  00000+0  23520-3 0  9992
2 53261  53.2195 346.9968 0001909 302.4140  92.2161 15.73250420  1306
STARLINK-4085           
1 53262U 22086W   22216.91667824  .00030230  00000+0  21879-3 0  9999
2 53262  53.2192 346.9978 0001736 297.0590  96.3097 15.73225735  1305
STARLINK-4130           
1 53263U 22086X   22216.91667824 -.00079914  00000+0 -56819-3 0  9996
2 53263  53.2200 346.9967 0000876 344.7035  50.5816 15.73291104  1306
STARLINK-3950           
1 53264U 22086Y   22216.91667824 -.00103351  00000+0 -73890-3 0  9998
2 53264  53.2192 346.9962 0001186  57.4854 336.7604 15.73267610  1303
STARLINK-4097           
1 53265U 22086Z   22216.91667824 -.00001632  00000+0 -71965-5 0  9991
2 53265  53.2196 346.9932 0001815 292.7049 103.9072 15.73226264  1307
STARLINK-4058           
1 53266U 22086AA  22216.91667824 -.00054622  00000+0 -38639-3 0  9998
2 53266  53.2194 346.9934 0000965 325.9914  69.9544 15.73255448  1304
STARLINK-4060           
1 53267U 22086AB  22216.91667824 -.00059178  00000+0 -41905-3 0  9990
2 53267  53.2195 346.9892 0001410 317.4822  80.8902 15.73263181  1302
STARLINK-4109           
1 53268U 22086AC  22216.91667824 -.00081808  00000+0 -58273-3 0  9992
2 53268  53.2192 346.9901 0001500 301.6893  95.5133 15.73256036  1304
STARLINK-4057           
1 53269U 22086AD  22216.91667824  .00030503  00000+0  22049-3 0  9999
2 53269  53.2195 346.9874 0000682 334.1244  65.2409 15.73250175  1306
STARLINK-4113           
1 53270U 22086AE  22216.91667824  .00355751  66905-4  44594-3 0  9996
2 53270  53.2187 345.8329 0065045  80.5620 155.8035 16.02699061  1301
STARLINK-4069           
1 53271U 22086AF  22216.91667824  .00030272  00000+0  21915-3 0  9996
2 53271  53.2194 346.9847 0001109 321.6432  78.8667 15.73219410  1306
STARLINK-4122           
1 53272U 22086AG  22216.91667824 -.00084370  00000+0 -60023-3 0  9990
2 53272  53.2194 346.9874 0001378  36.8795   2.0484 15.73297776  1309
STARLINK-4051           
1 53273U 22086AH  22216.91667824 -.00064548  00000+0 -45823-3 0  9997
2 53273  53.2193 346.9812 0001282  62.5859 339.4076 15.73240433  1304
STARLINK-4050           
1 53274U 22086AJ  22216.91667824  .00031002  00000+0  22424-3 0  9997
2 53274  53.2193 346.9851 0000911  40.1750 359.7656 15.73226450  1300
STARLINK-4179           
1 53275U 22086AK  22216.91667824 -.00073207  00000+0 -52005-3 0  9991
2 53275  53.2194 346.9800 0002504 292.8957 109.6226 15.73270376  1302
STARLINK-4174           
1 53276U 22086AL  22216.91667824 -.00080802  00000+0 -57444-3 0  9993
2 53276  53.2198 346.9842 0002004 293.8478 107.4051 15.73294421  1306
STARLINK-4178           
1 53277U 22086AM  22216.91667824 -.00067202  00000+0 -47726-3 0  9995
2 53277  53.2193 346.9766 0000823  35.4272   8.8997 15.73248551  1302
STARLINK-4180           
1 53278U 22086AN  22216.91667824 -.00066659  00000+0 -47322-3 0  9993
2 53278  53.2191 346.9782 0001273  53.2444 349.8701 15.73253154  1304
STARLINK-4169           
1 53280U 22086AQ  22216.91667824  .00021148  00000+0  15460-3 0  9996
2 53280  53.2193 346.9776 0001205  50.1986 353.5274 15.73218205  1309
STARLINK-4182           
1 53281U 22086AR  22216.91667824 -.00034284  00000+0 -24002-3 0  9996
2 53281  53.2195 346.9736 0001935 296.8683 109.1250 15.73277879  1302
STARLINK-4164           
1 53282U 22086AS  22216.91667824 -.00040919  00000+0 -28840-3 0  9993
2 53282  53.2196 346.9757 0001089  53.0785 351.9116 15.73212827  1303
STARLINK-4175           
1 53283U 22086AT  22216.91667824 -.00058892  00000+0 -41693-3 0  9994
2 53283  53.2198 346.9736 0001250  47.3960 359.2308 15.73267000  1301
STARLINK-4172           
1 53284U 22086AU  22216.91667824  .00028928  00000+0  20977-3 0  9992
2 53284  53.2193 346.9745 0000879  32.7504  12.5176 15.73205751  1302
STARLINK-4173           
1 53285U 22086AV  22216.91667824 -.00129827  00000+0 -93185-3 0  9996
2 53285  53.2198 346.9697 0001250  53.9248 354.6065 15.73277249  1306
STARLINK-4165           
1 53286U 22086AW  22216.91667824 -.00035629  00000+0 -24996-3 0  9997
2 53286  53.2192 346.9705 0001253  61.1280 346.1418 15.73251489  1307
STARLINK-4107           
1 53287U 22086AX  22216.91667824 -.00053189  00000+0 -37620-3 0  9997
2 53287  53.2199 346.9680 0001316  47.7232   1.9561 15.73246377  1309
STARLINK-4162           
1 53288U 22086AY  22216.91667824 -.00081704  00000+0 -58185-3 0  9991
2 53288  53.2190 346.9684 0001079  44.9327   2.9525 15.73262127  1307
STARLINK-4176           
1 53289U 22086AZ  22216.91667824  .00031104  00000+0  22478-3 0  9995
2 53289  53.2195 346.9646 0000854  38.1025  12.5863 15.73245306  1303
STARLINK-4149           
1 53290U 22086BA  22216.91667824 -.00087357  00000+0 -62275-3 0  9999
2 53290  53.2192 346.9667 0000745  22.1680  26.9081 15.73266119  1300
STARLINK-4166           
1 53291U 22086BB  22216.91667824  .00029620  00000+0  21471-3 0  9990
2 53291  53.2199 346.9650 0001349  58.7321 352.4905 15.73200898  1302
STARLINK-4159           
1 53292U 22086BC  22216.91667824  .00030378  00000+0  21975-3 0  9992
2 53292  53.2193 346.9649 0001027  48.4006   1.6605 15.73235365  1301
STARLINK-4148           
1 53293U 22086BD  22216.91667824  .00029132  00000+0  21128-3 0  9999
2 53293  53.2197 346.9632 0001424  61.8076 350.0161 15.73198507  1309
STARLINK-4146           
1 53294U 22086BE  22216.91667824  .00029635  00000+0  21446-3 0  9991
2 53294  53.2192 346.9601 0000707  36.0029  16.5084 15.73239342  1307
FALCON 9 DEB            
1 53295U 22086BF  22216.93314743  .00550718  11461-4  59433-3 0  9999
2 53295  53.2212 345.6977 0061781  80.4487 280.3522 16.05238084  1837
FALCON 9 DEB            
1 53296U 22086BG  22216.92979578  .00527177  14362-3  57274-3 0  9998
2 53296  53.2188 345.6709 0057707  82.0915 278.6663 16.05667478  1839
FALCON 9 DEB            
1 53297U 22086BH  22216.92140358  .00537174  11505-4  53928-3 0  9992
2 53297  53.2193 345.6082 0055230  76.0514 284.6655 16.07062991  1836
FALCON 9 DEB            
1 53298U 22086BJ  22216.91942120  .00583834  11517-4  56911-3 0  9991
2 53298  53.2197 345.5951 0054480  76.8074 283.9031 16.07562655  1832
2022-087A               
1 53299U 22087A   22216.92323400  .00002100  00000+0  97344-4 0  9996
2 53299  97.4042 291.2194 0013743 252.0973 223.6099 15.21108691  1332
2022-087B               
1 53300U 22087B   22216.92143910  .00001883  00000+0  86647-4 0  9996
2 53300  97.4043 291.2223 0013715 259.6874 218.0623 15.21485075  1336
2022-087C               
1 53301U 22087C   22216.85842163  .00001746  00000+0  80445-4 0  9993
2 53301  97.4037 291.1609 0014458 259.5951 235.0896 15.21543513  1329
2022-087D               
1 53302U 22087D   22216.85718444  .00003626  00000+0  16256-3 0  9995
2 53302  97.4050 291.1642 0013541 266.2062 228.6036 15.21781984  1322
2022-087E               
1 53303U 22087E   22216.85553133  .00002263  00000+0  10232-3 0  9992
2 53303  97.4070 291.1660 0014818 265.2101 223.6346 15.21868599  1323
ZK-1A R/B               
1 53304U 22087F   22216.81717702  .00014051  00000+0  14786-3 0  9999
2 53304  97.2796 291.3227 0174879 281.1392  77.0241 15.47685405  1338
1998-067TQ              
1 53305U 98067TQ  22216.08656010  .00020443  00000+0  35619-3 0  9994
2 53305  51.6415  99.2898 0004502  84.3227 275.8276 15.50707415  2095
RS4S                    
1 53306U 98067TR  22216.72980696  .00022956  00000+0  39623-3 0  9996
2 53306  51.6417  96.0872 0004046  90.7400 269.4053 15.50897247  2198
1998-067TS              
1 53307U 98067TS  22216.85849002  .00023163  00000+0  39940-3 0  9999
2 53307  51.6414  95.4461 0003977  82.1454 277.9987 15.50921365  2244
RS3S                    
1 53308U 98067TT  22216.85828742  .00022393  00000+0  38616-3 0  9991
2 53308  51.6415  95.4454 0003744  84.9323 275.2094 15.50940419  2279
RS1S                    
1 53309U 98067TU  22216.79361830  .00023364  00000+0  40205-3 0  9991
2 53309  51.6414  95.7629 0004434  95.5112 264.6384 15.50970842  2218
